{"type": "FeatureCollection", "features": [ {"type": "Feature", "properties": {"norad_id": 31038, "name": "FENGYUN 1C DEB", "group": "fengyun-1c-debris", "lat": 49.71143775409268, "lon": -84.06992432867688, "alt_km": 702.9350149995316, "timestamp": "2025-12-26T06:43:29.791871+00:00", "meta": {"OBJECT_NAME": "FENGYUN 1C DEB", "OBJECT_ID": "1999-025BEG", "EPOCH": "2025-12-25T16:50:14.476416", "MEAN_MOTION": 14.45874155, "ECCENTRICITY": 0.00845337, "INCLINATION": 99.0115, "RA_OF_ASC_NODE": 84.5262, "ARG_OF_PERICENTER": 189.7685, "MEAN_ANOMALY": 170.1865, "EPHEMERIS_TYPE": 0, "CLASSIFICATION_TYPE": "U", "NORAD_CAT_ID": 31038, "ELEMENT_SET_NO": 999, "REV_AT_EPOCH": 98422, "BSTAR": 0.00059412726, "MEAN_MOTION_DOT": 2.154e-05, "MEAN_MOTION_DDOT": 0}, "tle": {"line1": "1 31038U 99025BEG 25359.70155644  .00002154  00000+0  59413-3 0  9992", "line2": "2 31038  99.0115  84.5262 0084533 189.7685 170.1865 14.45874155984223"}}, "geometry": {"type": "Point", "coordinates": [-84.06992432867688, 49.71143775409268]}}, {"type": "Feature", "properties": {"norad_id": 31040, "name": "FENGYUN 1C DEB", "group": "fengyun-1c-debris", "lat": -35.38581628243481, "lon": 163.57214034868943, "alt_km": 816.9397354615867, "timestamp": "2025-12-26T06:43:29.791881+00:00", "meta": {"OBJECT_NAME": "FENGYUN 1C DEB", "OBJECT_ID": "1999-025BEJ", "EPOCH": "2025-12-24T04:52:38.079264", "MEAN_MOTION": 14.17685286, "ECCENTRICITY": 0.00628633, "INCLINATION": 98.6587, "RA_OF_ASC_NODE": 347.7613, "ARG_OF_PERICENTER": 161.1139, "MEAN_ANOMALY": 259.7243, "EPHEMERIS_TYPE": 0, "CLASSIFICATION_TYPE": "U", "NORAD_CAT_ID": 31040, "ELEMENT_SET_NO": 999, "REV_AT_EPOCH": 96869, "BSTAR": 0.00026602335, "MEAN_MOTION_DOT": 5.1e-06, "MEAN_MOTION_DDOT": 0}, "tle": {"line1": "1 31040U 99025BEJ 25358.20321851  .00000510  00000+0  26602-3 0  9992", "line2": "2 31040  98.6587 347.7613 0062863 161.1139 259.7243 14.17685286968699"}}, "geometry": {"type": "Point", "coordinates": [163.57214034868943, -35.38581628243481]}}, {"type": "Feature", "properties": {"norad_id": 31041, "name": "FENGYUN 1C DEB", "group": "fengyun-1c-debris", "lat": 73.18442925664002, "lon": -118.14055559600797, "alt_km": 888.5937717311026, "timestamp": "2025-12-26T06:43:29.791891+00:00", "meta": {"OBJECT_NAME": "FENGYUN 1C DEB", "OBJECT_ID": "1999-025BEK", "EPOCH": "2025-12-25T13:17:44.691936", "MEAN_MOTION": 14.17947812, "ECCENTRICITY": 0.008796, "INCLINATION": 99.2042, "RA_OF_ASC_NODE": 28.6602, "ARG_OF_PERICENTER": 283.7501, "MEAN_ANOMALY": 75.3894, "EPHEMERIS_TYPE": 0, "CLASSIFICATION_TYPE": "U", "NORAD_CAT_ID": 31041, "ELEMENT_SET_NO": 999, "REV_AT_EPOCH": 95671, "BSTAR": 0.0021353, "MEAN_MOTION_DOT": 4.493e-05, "MEAN_MOTION_DDOT": 0}, "tle": {"line1": "1 31041U 99025BEK 25359.55398949  .00004493  00000+0  21353-2 0  9995", "line2": "2 31041  99.2042  28.6602 0087960 283.7501  75.3894 14.17947812956715"}}, "geometry": {"type": "Point", "coordinates": [-118.14055559600797, 73.18442925664002]}}, {"type": "Feature", "properties": {"norad_id": 31043, "name": "FENGYUN 1C DEB", "group": "fengyun-1c-debris", "lat": 11.962949621111395, "lon": 15.83074571658573, "alt_km": 845.4671610999094, "timestamp": "2025-12-26T06:43:29.791902+00:00", "meta": {"OBJECT_NAME": "FENGYUN 1C DEB", "OBJECT_ID": "1999-025BEM", "EPOCH": "2025-12-24T14:21:11.088000", "MEAN_MOTION": 14.0844703, "ECCENTRICITY": 0.00408946, "INCLINATION": 98.7634, "RA_OF_ASC_NODE": 16.0696, "ARG_OF_PERICENTER": 330.3974, "MEAN_ANOMALY": 156.9764, "EPHEMERIS_TYPE": 0, "CLASSIFICATION_TYPE": "U", "NORAD_CAT_ID": 31043, "ELEMENT_SET_NO": 999, "REV_AT_EPOCH": 96154, "BSTAR": 0.0004246316, "MEAN_MOTION_DOT": 6.9e-06, "MEAN_MOTION_DDOT": 0}, "tle": {"line1": "1 31043U 99025BEM 25358.59804500  .00000690  00000+0  42463-3 0  9996", "line2": "2 31043  98.7634  16.0696 0040894 330.3974 156.9764 14.08447030961546"}}, "geometry": {"type": "Point", "coordinates": [15.83074571658573, 11.962949621111395]}}, {"type": "Feature", "properties": {"norad_id": 31046, "name": "FENGYUN 1C DEB", "group": "fengyun-1c-debris", "lat": 16.980486989909604, "lon": 118.39641537923727, "alt_km": 656.5956246056812, "timestamp": "2025-12-26T06:43:29.791913+00:00", "meta": {"OBJECT_NAME": "FENGYUN 1C DEB", "OBJECT_ID": "1999-025BEQ", "EPOCH": "2025-12-25T19:51:10.098144", "MEAN_MOTION": 14.64291331, "ECCENTRICITY": 0.00449256, "INCLINATION": 98.9677, "RA_OF_ASC_NODE": 120.6673, "ARG_OF_PERICENTER": 61.8117, "MEAN_ANOMALY": 89.2281, "EPHEMERIS_TYPE": 0, "CLASSIFICATION_TYPE": "U", "NORAD_CAT_ID": 31046, "ELEMENT_SET_NO": 999, "REV_AT_EPOCH": 96834, "BSTAR": 0.003672749, "MEAN_MOTION_DOT": 0.00019655, "MEAN_MOTION_DDOT": 0}, "tle": {"line1": "1 31046U 99025BEQ 25359.82720021  .00019655  00000+0  36727-2 0  9997", "line2": "2 31046  98.9677 120.6673 0044925  61.8117  89.2281 14.64291331968349"}}, "geometry": {"type": "Point", "coordinates": [118.39641537923727, 16.980486989909604]}}, {"type": "Feature", "properties": {"norad_id": 31047, "name": "FENGYUN 1C DEB", "group": "fengyun-1c-debris", "lat": -65.46611906243038, "lon": 157.74708838655096, "alt_km": 859.0189290959497, "timestamp": "2025-12-26T06:43:29.791923+00:00", "meta": {"OBJECT_NAME": "FENGYUN 1C DEB", "OBJECT_ID": "1999-025BER", "EPOCH": "2025-12-22T12:16:57.847296", "MEAN_MOTION": 14.13857139, "ECCENTRICITY": 0.00261016, "INCLINATION": 98.7012, "RA_OF_ASC_NODE": 353.6831, "ARG_OF_PERICENTER": 150.1278, "MEAN_ANOMALY": 6.368, "EPHEMERIS_TYPE": 0, "CLASSIFICATION_TYPE": "U", "NORAD_CAT_ID": 31047, "ELEMENT_SET_NO": 999, "REV_AT_EPOCH": 96497, "BSTAR": 0.00037194236, "MEAN_MOTION_DOT": 6.64e-06, "MEAN_MOTION_DDOT": 0}, "tle": {"line1": "1 31047U 99025BER 25356.51178064  .00000664  00000+0  37194-3 0  9995", "line2": "2 31047  98.7012 353.6831 0026101 150.1278   6.3680 14.13857139964977"}}, "geometry": {"type": "Point", "coordinates": [157.74708838655096, -65.46611906243038]}}, {"type": "Feature", "properties": {"norad_id": 31051, "name": "FENGYUN 1C DEB", "group": "fengyun-1c-debris", "lat": -2.547470109538255, "lon": -149.9840818025845, "alt_km": 882.1446633433889, "timestamp": "2025-12-26T06:43:29.791935+00:00", "meta": {"OBJECT_NAME": "FENGYUN 1C DEB", "OBJECT_ID": "1999-025BEV", "EPOCH": "2025-12-24T19:38:00.414240", "MEAN_MOTION": 14.03039998, "ECCENTRICITY": 0.00534769, "INCLINATION": 98.8164, "RA_OF_ASC_NODE": 28.9954, "ARG_OF_PERICENTER": 102.6706, "MEAN_ANOMALY": 258.0447, "EPHEMERIS_TYPE": 0, "CLASSIFICATION_TYPE": "U", "NORAD_CAT_ID": 31051, "ELEMENT_SET_NO": 999, "REV_AT_EPOCH": 63988, "BSTAR": 0.00030067955, "MEAN_MOTION_DOT": 4.31e-06, "MEAN_MOTION_DDOT": 0}, "tle": {"line1": "1 31051U 99025BEV 25358.81806035  .00000431  00000+0  30068-3 0  9996", "line2": "2 31051  98.8164  28.9954 0053476 102.6706 258.0447 14.03039998639882"}}, "geometry": {"type": "Point", "coordinates": [-149.9840818025845, -2.547470109538255]}}, {"type": "Feature", "properties": {"norad_id": 31053, "name": "FENGYUN 1C DEB", "group": "fengyun-1c-debris", "lat": 3.253072387435682, "lon": -57.72535547590318, "alt_km": 1081.085780836268, "timestamp": "2025-12-26T06:43:29.791945+00:00", "meta": {"OBJECT_NAME": "FENGYUN 1C DEB", "OBJECT_ID": "1999-025BEX", "EPOCH": "2025-12-24T13:45:33.931296", "MEAN_MOTION": 13.75910871, "ECCENTRICITY": 0.03086955, "INCLINATION": 98.7943, "RA_OF_ASC_NODE": 120.1919, "ARG_OF_PERICENTER": 63.3862, "MEAN_ANOMALY": 299.8565, "EPHEMERIS_TYPE": 0, "CLASSIFICATION_TYPE": "U", "NORAD_CAT_ID": 31053, "ELEMENT_SET_NO": 999, "REV_AT_EPOCH": 93639, "BSTAR": 0.0012850062, "MEAN_MOTION_DOT": 1.728e-05, "MEAN_MOTION_DDOT": 0}, "tle": {"line1": "1 31053U 99025BEX 25358.57330939  .00001728  00000+0  12850-2 0  9994", "line2": "2 31053  98.7943 120.1919 0308695  63.3862 299.8565 13.75910871936392"}}, "geometry": {"type": "Point", "coordinates": [-57.72535547590318, 3.253072387435682]}}, {"type": "Feature", "properties": {"norad_id": 31054, "name": "FENGYUN 1C DEB", "group": "fengyun-1c-debris", "lat": -75.5201359618508, "lon": 49.20987026173022, "alt_km": 866.7248731806776, "timestamp": "2025-12-26T06:43:29.791955+00:00", "meta": {"OBJECT_NAME": "FENGYUN 1C DEB", "OBJECT_ID": "1999-025BEY", "EPOCH": "2025-12-25T13:07:45.070752", "MEAN_MOTION": 14.12177235, "ECCENTRICITY": 0.0010801, "INCLINATION": 98.6898, "RA_OF_ASC_NODE": 12.1847, "ARG_OF_PERICENTER": 87.401, "MEAN_ANOMALY": 69.1197, "EPHEMERIS_TYPE": 0, "CLASSIFICATION_TYPE": "U", "NORAD_CAT_ID": 31054, "ELEMENT_SET_NO": 999, "REV_AT_EPOCH": 96944, "BSTAR": 0.00014512, "MEAN_MOTION_DOT": 2.24e-06, "MEAN_MOTION_DDOT": 0}, "tle": {"line1": "1 31054U 99025BEY 25359.54704943  .00000224  00000+0  14512-3 0  9991", "line2": "2 31054  98.6898  12.1847 0010801  87.4010  69.1197 14.12177235969444"}}, "geometry": {"type": "Point", "coordinates": [49.20987026173022, -75.5201359618508]}}, {"type": "Feature", "properties": {"norad_id": 31055, "name": "FENGYUN 1C DEB", "group": "fengyun-1c-debris", "lat": -41.69205379804544, "lon": 39.03258947132482, "alt_km": 863.0803184222705, "timestamp": "2025-12-26T06:43:29.791966+00:00", "meta": {"OBJECT_NAME": "FENGYUN 1C DEB", "OBJECT_ID": "1999-025BEZ", "EPOCH": "2025-12-25T22:58:14.257344", "MEAN_MOTION": 14.10392624, "ECCENTRICITY": 0.00243692, "INCLINATION": 98.7585, "RA_OF_ASC_NODE": 30.8253, "ARG_OF_PERICENTER": 233.3835, "MEAN_ANOMALY": 244.5531, "EPHEMERIS_TYPE": 0, "CLASSIFICATION_TYPE": "U", "NORAD_CAT_ID": 31055, "ELEMENT_SET_NO": 999, "REV_AT_EPOCH": 96308, "BSTAR": 0.00033515235, "MEAN_MOTION_DOT": 5.54e-06, "MEAN_MOTION_DDOT": 0}, "tle": {"line1": "1 31055U 99025BEZ 25359.95710946  .00000554  00000+0  33515-3 0  9997", "line2": "2 31055  98.7585  30.8253 0024369 233.3835 244.5531 14.10392624963082"}}, "geometry": {"type": "Point", "coordinates": [39.03258947132482, -41.69205379804544]}}]}